*******************************************************************************
JPL/HORIZONS                 37 Fides (A855 TB)            2023-Sep-04 11:04:01
Rec #:      37 (+COV) Soln.date: 2023-Aug-23_12:49:02   # obs: 3503 (1855-2023)
 
IAU76/J2000 helio. ecliptic osc. elements (au, days, deg., period=Julian yrs):
 
  EPOCH=  2457528.5 ! 2016-May-20.00 (TDB)         Residual RMS= .35249
   EC= .1742485917286525   QR= 2.183474755867424   TP= 2457112.7410092624
   OM= 7.294118473329014   W=  63.06381404184612   IN= 3.072675727590366
   A= 2.644227710659767    MA= 95.30099724268932   ADIST= 3.104980665452111
   PER= 4.29988            N= .229221735           ANGMOM= .027544542
   DAN= 2.37637            DDN= 2.78367            L= 70.3246285
   B= 2.7390564            MOID= 1.20103002        TP= 2015-Mar-31.2410092624
 
Asteroid physical parameters (km, seconds, rotational period in hours):
   GM= n.a.                RAD= 54.175             ROTPER= 7.3335
   H= 7.41                 G= .240                 B-V= .843
                           ALBEDO= .1826           STYP= S

ASTEROID comments: 
1: soln ref.= JPL#145, OCC=0
2: source=ORB
*******************************************************************************


*******************************************************************************
Ephemeris / API_USER Mon Sep  4 11:04:01 2023 Pasadena, USA      / Horizons
*******************************************************************************
Target body name: 37 Fides (A855 TB)              {source: JPL#145}
Center body name: Solar System Barycenter (0)     {source: DE441}
Center-site name: BODY CENTER
*******************************************************************************
Start time      : A.D. 2023-Aug-12 00:00:00.0000 TDB
Stop  time      : A.D. 2023-Aug-13 00:00:00.0000 TDB
Step-size       : 2880 minutes
*******************************************************************************
Center geodetic : 0.0, 0.0, 0.0                   {E-lon(deg),Lat(deg),Alt(km)}
Center cylindric: 0.0, 0.0, 0.0                   {E-lon(deg),Dxy(km),Dz(km)}
Center radii    : (undefined)
Small perturbers: Yes                             {source: SB441-N16}
Output units    : KM-S
Calendar mode   : Mixed Julian/Gregorian
Output type     : GEOMETRIC cartesian states
Output format   : 2 (position and velocity)
Reference frame : Ecliptic of J2000.0
*******************************************************************************
Initial IAU76/J2000 heliocentric ecliptic osculating elements (au, days, deg.):
  EPOCH=  2457528.5 ! 2016-May-20.00 (TDB)         Residual RMS= .35249        
   EC= .1742485917286525   QR= 2.183474755867424   TP= 2457112.7410092624      
   OM= 7.294118473329014   W=  63.06381404184612   IN= 3.072675727590366       
  Equivalent ICRF heliocentric cartesian coordinates (au, au/d):
   X=-2.753402119831746E+00  Y=-2.143406140783410E-01  Z=-8.586985058704422E-02
  VX=-8.680944807731381E-04 VY=-9.021134235651443E-03 VZ=-4.488644549188901E-03
Asteroid physical parameters (km, seconds, rotational period in hours):        
   GM= n.a.                RAD= 54.175             ROTPER= 7.3335              
   H= 7.41                 G= .240                 B-V= .843                   
                           ALBEDO= .1826           STYP= S                     
*******************************************************************************
JDTDB
   X     Y     Z
   VX    VY    VZ
*******************************************************************************
$$SOE
2460168.500000000 = A.D. 2023-Aug-12 00:00:00.0000 TDB 
 X = 2.379097206946341E+08 Y = 2.282138023904628E+08 Z = 1.056379196018070E+07
 VX=-1.591189460981702E+01 VY= 1.455516198631238E+01 VZ= 8.827118576167212E-01
$$EOE
*******************************************************************************
 
TIME

  Barycentric Dynamical Time ("TDB" or T_eph) output was requested. This
continuous coordinate time is equivalent to the relativistic proper time
of a clock at rest in a reference frame co-moving with the solar system
barycenter but outside the system's gravity well. It is the independent
variable in the solar system relativistic equations of motion.

  TDB runs at a uniform rate of one SI second per second and is independent
of irregularities in Earth's rotation.
 
CALENDAR SYSTEM

  Mixed calendar mode was active such that calendar dates after AD 1582-Oct-15
(if any) are in the modern Gregorian system. Dates prior to 1582-Oct-5 (if any)
are in the Julian calendar system, which is automatically extended for dates
prior to its adoption on 45-Jan-1 BC.  The Julian calendar is useful for
matching historical dates. The Gregorian calendar more accurately corresponds
to the Earth's orbital motion and seasons. A "Gregorian-only" calendar mode is
available if such physical events are the primary interest.

REFERENCE FRAME AND COORDINATES

  Ecliptic at the standard reference epoch

    Reference epoch: J2000.0
    X-Y plane: adopted Earth orbital plane at the reference epoch
               Note: IAU76 obliquity of 84381.448 arcseconds wrt ICRF X-Y plane
    X-axis   : ICRF
    Z-axis   : perpendicular to the X-Y plane in the directional (+ or -) sense
               of Earth's north pole at the reference epoch.

  Symbol meaning:

    JDTDB    Julian Day Number, Barycentric Dynamical Time
      X      X-component of position vector (km)
      Y      Y-component of position vector (km)
      Z      Z-component of position vector (km)
      VX     X-component of velocity vector (km/sec)                           
      VY     Y-component of velocity vector (km/sec)                           
      VZ     Z-component of velocity vector (km/sec)                           

ABERRATIONS AND CORRECTIONS

 Geometric state vectors have NO corrections or aberrations applied.

Computations by ...

    Solar System Dynamics Group, Horizons On-Line Ephemeris System
    4800 Oak Grove Drive, Jet Propulsion Laboratory
    Pasadena, CA  91109   USA

    General site: https://ssd.jpl.nasa.gov/
    Mailing list: https://ssd.jpl.nasa.gov/email_list.html
    System news : https://ssd.jpl.nasa.gov/horizons/news.html
    User Guide  : https://ssd.jpl.nasa.gov/horizons/manual.html
    Connect     : browser        https://ssd.jpl.nasa.gov/horizons/app.html#/x
                  API            https://ssd-api.jpl.nasa.gov/doc/horizons.html
                  command-line   telnet ssd.jpl.nasa.gov 6775
                  e-mail/batch   https://ssd.jpl.nasa.gov/ftp/ssd/hrzn_batch.txt
                  scripts        https://ssd.jpl.nasa.gov/ftp/ssd/SCRIPTS
    Author      : Jon.D.Giorgini@jpl.nasa.gov
*******************************************************************************
